[{"OBJECT_NAME":"KUIPER-00156","OBJECT_ID":"2025-217P","EPOCH":"2026-03-09T04:41:39.796800","MEAN_MOTION":14.79924864,"ECCENTRICITY":8.23e-5,"INCLINATION":51.9039,"RA_OF_ASC_NODE":27.808,"ARG_OF_PERICENTER":97.2026,"MEAN_ANOMALY":262.903,"EPHEMERIS_TYPE":0,"CLASSIFICATION_TYPE":"U","NORAD_CAT_ID":65775,"ELEMENT_SET_NO":999,"REV_AT_EPOCH":2504,"BSTAR":0.00041878819,"MEAN_MOTION_DOT":2.972e-5,"MEAN_MOTION_DDOT":0},{"OBJECT_NAME":"IRIDIUM 33 DEB","OBJECT_ID":"1997-051ST","EPOCH":"2026-03-07T21:30:34.542432","MEAN_MOTION":14.77906491,"ECCENTRICITY":0.0011118,"INCLINATION":86.3242,"RA_OF_ASC_NODE":296.5068,"ARG_OF_PERICENTER":321.559,"MEAN_ANOMALY":38.4837,"EPHEMERIS_TYPE":0,"CLASSIFICATION_TYPE":"U","NORAD_CAT_ID":35809,"ELEMENT_SET_NO":999,"REV_AT_EPOCH":88064,"BSTAR":0.0019374861,"MEAN_MOTION_DOT":0.00013997,"MEAN_MOTION_DDOT":0}]
